start=new Date('2022-10-03T00:00:00.000Z').valueOf();
sats=[{"GP_ID":"214049772","PERIAPSIS":"538.517","REV_AT_EPOCH":"3290","MEAN_ANOMALY":"305.0281","CENTER_NAME":"EARTH","FILE":"3589751","ARG_OF_PERICENTER":"55.0879","TLE_LINE1":"1 51782U 22017Q   22275.87568863 -.00002081  00000-0 -11268-3 0  9998","BSTAR":"-0.00011268000000","ELEMENT_SET_NO":"999","EPOCH":"2022-10-02T21:00:59.497632","EPHEMERIS_TYPE":"0","ECCENTRICITY":"0.00017880","INCLINATION":"53.2165","MEAN_MOTION":"15.08837227","CLASSIFICATION_TYPE":"U","MEAN_MOTION_DOT":"-0.00002081","OBJECT_ID":"2022-017Q","REF_FRAME":"TEME","SITE":"AFWTR","PERIOD":"95.438","TLE_LINE2":"2 51782  53.2165 217.7002 0001788  55.0879 305.0281 15.08837227 32900","DECAY_DATE":null,"MEAN_MOTION_DDOT":"0.0000000000000","MEAN_ELEMENT_THEORY":"SGP4","SEMIMAJOR_AXIS":"6917.889","TIME_SYSTEM":"UTC","LAUNCH_DATE":"2022-02-25","OBJECT_TYPE":"PAYLOAD","NORAD_CAT_ID":"51782","COUNTRY_CODE":"US","RA_OF_ASC_NODE":"217.7002","OBJECT_NAME":"STARLINK-3616","APOAPSIS":"540.991","RCS_SIZE":"LARGE"},{"REV_AT_EPOCH":"3308","PERIAPSIS":"538.548","CENTER_NAME":"EARTH","MEAN_ANOMALY":"307.7495","GP_ID":"214018977","ECCENTRICITY":"0.00017770","MEAN_MOTION_DOT":"-0.00000608","CLASSIFICATION_TYPE":"U","INCLINATION":"53.2195","MEAN_MOTION":"15.08829599","ARG_OF_PERICENTER":"52.3658","TLE_LINE1":"1 51783U 22017R   22275.52333701 -.00000608  00000-0 -20137-4 0  9991","FILE":"3589474","EPHEMERIS_TYPE":"0","ELEMENT_SET_NO":"999","EPOCH":"2022-10-02T12:33:36.317664","BSTAR":"-0.00002013700000","SEMIMAJOR_AXIS":"6917.912","MEAN_ELEMENT_THEORY":"SGP4","MEAN_MOTION_DDOT":"0.0000000000000","DECAY_DATE":null,"LAUNCH_DATE":"2022-02-25","TIME_SYSTEM":"UTC","SITE":"AFWTR","REF_FRAME":"TEME","OBJECT_ID":"2022-017R","TLE_LINE2":"2 51783  53.2195 209.2937 0001777  52.3658 307.7495 15.08829599 33089","PERIOD":"95.438","RCS_SIZE":"LARGE","APOAPSIS":"541.006","RA_OF_ASC_NODE":"209.2937","OBJECT_NAME":"STARLINK-3628","COUNTRY_CODE":"US","OBJECT_TYPE":"PAYLOAD","NORAD_CAT_ID":"51783"},{"MEAN_ANOMALY":"297.6267","CENTER_NAME":"EARTH","PERIAPSIS":"538.783","REV_AT_EPOCH":"3299","GP_ID":"214051256","CLASSIFICATION_TYPE":"U","MEAN_MOTION_DOT":"-0.00000095","MEAN_MOTION":"15.08836465","INCLINATION":"53.2164","ECCENTRICITY":"0.00014070","EPHEMERIS_TYPE":"0","ELEMENT_SET_NO":"999","EPOCH":"2022-10-02T20:55:40.400832","BSTAR":"0.00001210100000","ARG_OF_PERICENTER":"62.4868","TLE_LINE1":"1 51784U 22017S   22275.87199538 -.00000095  00000-0  12101-4 0  9999","FILE":"3589751","LAUNCH_DATE":"2022-02-25","TIME_SYSTEM":"UTC","SEMIMAJOR_AXIS":"6917.891","MEAN_ELEMENT_THEORY":"SGP4","DECAY_DATE":null,"MEAN_MOTION_DDOT":"0.0000000000000","TLE_LINE2":"2 51784  53.2164 217.7215 0001407  62.4868 297.6267 15.08836465 32997","PERIOD":"95.438","REF_FRAME":"TEME","SITE":"AFWTR","OBJECT_ID":"2022-017S","APOAPSIS":"540.730","RCS_SIZE":"LARGE","COUNTRY_CODE":"US","OBJECT_NAME":"STARLINK-3632","RA_OF_ASC_NODE":"217.7215","NORAD_CAT_ID":"51784","OBJECT_TYPE":"PAYLOAD"},{"LAUNCH_DATE":"2022-02-25","TIME_SYSTEM":"UTC","MEAN_ELEMENT_THEORY":"SGP4","SEMIMAJOR_AXIS":"6917.903","DECAY_DATE":null,"MEAN_MOTION_DDOT":"0.0000000000000","TLE_LINE2":"2 51785  53.2172 208.1318 0001490  51.4892 308.6234 15.08832684 33124","PERIOD":"95.438","REF_FRAME":"TEME","SITE":"AFWTR","OBJECT_ID":"2022-017T","APOAPSIS":"540.799","RCS_SIZE":"LARGE","COUNTRY_CODE":"US","OBJECT_NAME":"STARLINK-3646","RA_OF_ASC_NODE":"208.1318","NORAD_CAT_ID":"51785","OBJECT_TYPE":"PAYLOAD","MEAN_ANOMALY":"308.6234","CENTER_NAME":"EARTH","PERIAPSIS":"538.737","REV_AT_EPOCH":"3312","GP_ID":"214050023","MEAN_MOTION_DOT":"-0.00003900","CLASSIFICATION_TYPE":"U","INCLINATION":"53.2172","MEAN_MOTION":"15.08832684","ECCENTRICITY":"0.00014900","ELEMENT_SET_NO":"999","EPHEMERIS_TYPE":"0","EPOCH":"2022-10-02T18:49:49.195488","BSTAR":"-0.00022710000000","ARG_OF_PERICENTER":"51.4892","TLE_LINE1":"1 51785U 22017T   22275.78459717 -.00003900  00000-0 -22710-3 0  9993","FILE":"3589751"},{"MEAN_MOTION":"15.08839173","INCLINATION":"53.2160","MEAN_MOTION_DOT":"-0.00000543","CLASSIFICATION_TYPE":"U","ECCENTRICITY":"0.00018210","BSTAR":"-0.00001603300000","ELEMENT_SET_NO":"999","EPOCH":"2022-10-02T20:45:04.552992","EPHEMERIS_TYPE":"0","FILE":"3589751","ARG_OF_PERICENTER":"56.1063","TLE_LINE1":"1 51786U 22017U   22275.86463603 -.00000543  00000-0 -16033-4 0  9994","CENTER_NAME":"EARTH","MEAN_ANOMALY":"304.0102","REV_AT_EPOCH":"3299","PERIAPSIS":"538.488","GP_ID":"214050272","OBJECT_NAME":"STARLINK-3638","RA_OF_ASC_NODE":"217.7556","COUNTRY_CODE":"US","RCS_SIZE":"LARGE","APOAPSIS":"541.008","NORAD_CAT_ID":"51786","OBJECT_TYPE":"PAYLOAD","TIME_SYSTEM":"UTC","LAUNCH_DATE":"2022-02-25","MEAN_MOTION_DDOT":"0.0000000000000","DECAY_DATE":null,"MEAN_ELEMENT_THEORY":"SGP4","SEMIMAJOR_AXIS":"6917.883","PERIOD":"95.438","TLE_LINE2":"2 51786  53.2160 217.7556 0001821  56.1063 304.0102 15.08839173 32990","OBJECT_ID":"2022-017U","SITE":"AFWTR","REF_FRAME":"TEME"},{"CENTER_NAME":"EARTH","MEAN_ANOMALY":"314.8655","REV_AT_EPOCH":"3299","PERIAPSIS":"538.202","GP_ID":"214050520","MEAN_MOTION_DOT":"0.00006617","CLASSIFICATION_TYPE":"U","MEAN_MOTION":"15.08840496","INCLINATION":"53.2164","ECCENTRICITY":"0.00022290","ELEMENT_SET_NO":"999","EPHEMERIS_TYPE":"0","EPOCH":"2022-10-02T21:06:16.742016","BSTAR":"0.00043347000000","TLE_LINE1":"1 51787U 22017V   22275.87936044  .00006617  00000-0  43347-3 0  9993","ARG_OF_PERICENTER":"45.2518","FILE":"3589751","LAUNCH_DATE":"2022-02-25","TIME_SYSTEM":"UTC","MEAN_ELEMENT_THEORY":"SGP4","SEMIMAJOR_AXIS":"6917.879","MEAN_MOTION_DDOT":"0.0000000000000","DECAY_DATE":null,"TLE_LINE2":"2 51787  53.2164 217.6896 0002229  45.2518 314.8655 15.08840496 32990","PERIOD":"95.438","SITE":"AFWTR","REF_FRAME":"TEME","OBJECT_ID":"2022-017V","RCS_SIZE":"LARGE","APOAPSIS":"541.286","OBJECT_NAME":"STARLINK-3619","RA_OF_ASC_NODE":"217.6896","COUNTRY_CODE":"US","NORAD_CAT_ID":"51787","OBJECT_TYPE":"PAYLOAD"},{"ECCENTRICITY":"0.00016980","MEAN_MOTION_DOT":"-0.00000200","CLASSIFICATION_TYPE":"U","INCLINATION":"53.2161","MEAN_MOTION":"15.08835536","ARG_OF_PERICENTER":"55.6378","TLE_LINE1":"1 51788U 22017W   22275.85359221 -.00000200  00000-0  55322-5 0  9999","FILE":"3589751","ELEMENT_SET_NO":"999","EPHEMERIS_TYPE":"0","EPOCH":"2022-10-02T20:29:10.366944","BSTAR":"0.00000553220000","PERIAPSIS":"538.584","REV_AT_EPOCH":"3463","MEAN_ANOMALY":"304.4775","CENTER_NAME":"EARTH","GP_ID":"214050757","APOAPSIS":"540.934","RCS_SIZE":"LARGE","COUNTRY_CODE":"US","RA_OF_ASC_NODE":"217.8204","OBJECT_NAME":"STARLINK-3641","OBJECT_TYPE":"PAYLOAD","NORAD_CAT_ID":"51788","SEMIMAJOR_AXIS":"6917.894","MEAN_ELEMENT_THEORY":"SGP4","DECAY_DATE":null,"MEAN_MOTION_DDOT":"0.0000000000000","LAUNCH_DATE":"2022-02-25","TIME_SYSTEM":"UTC","REF_FRAME":"TEME","SITE":"AFWTR","OBJECT_ID":"2022-017W","TLE_LINE2":"2 51788  53.2161 217.8204 0001698  55.6378 304.4775 15.08835536 34631","PERIOD":"95.438"},{"ECCENTRICITY":"0.00021620","INCLINATION":"53.2190","MEAN_MOTION":"15.08829437","CLASSIFICATION_TYPE":"U","MEAN_MOTION_DOT":"-0.00001515","FILE":"3589751","ARG_OF_PERICENTER":"43.4592","TLE_LINE1":"1 51789U 22017X   22275.86832010 -.00001515  00000-0 -77091-4 0  9990","BSTAR":"-0.00007709100000","EPOCH":"2022-10-02T20:50:22.856640","ELEMENT_SET_NO":"999","EPHEMERIS_TYPE":"0","REV_AT_EPOCH":"3299","PERIAPSIS":"538.282","CENTER_NAME":"EARTH","MEAN_ANOMALY":"316.6570","GP_ID":"214049524","OBJECT_NAME":"STARLINK-3639","RA_OF_ASC_NODE":"217.7434","COUNTRY_CODE":"US","RCS_SIZE":"LARGE","APOAPSIS":"541.273","OBJECT_TYPE":"PAYLOAD","NORAD_CAT_ID":"51789","MEAN_MOTION_DDOT":"0.0000000000000","DECAY_DATE":null,"SEMIMAJOR_AXIS":"6917.913","MEAN_ELEMENT_THEORY":"SGP4","TIME_SYSTEM":"UTC","LAUNCH_DATE":"2022-02-25","OBJECT_ID":"2022-017X","SITE":"AFWTR","REF_FRAME":"TEME","PERIOD":"95.438","TLE_LINE2":"2 51789  53.2190 217.7434 0002162  43.4592 316.6570 15.08829437 32996"},{"OBJECT_TYPE":"PAYLOAD","NORAD_CAT_ID":"51790","RA_OF_ASC_NODE":"217.8384","OBJECT_NAME":"STARLINK-3631","COUNTRY_CODE":"US","RCS_SIZE":"LARGE","APOAPSIS":"540.904","OBJECT_ID":"2022-017Y","SITE":"AFWTR","REF_FRAME":"TEME","PERIOD":"95.438","TLE_LINE2":"2 51790  53.2177 217.8384 0001647  52.2159 307.8983 15.08833629 34688","MEAN_MOTION_DDOT":"0.0000000000000","DECAY_DATE":null,"MEAN_ELEMENT_THEORY":"SGP4","SEMIMAJOR_AXIS":"6917.900","TIME_SYSTEM":"UTC","LAUNCH_DATE":"2022-02-25","FILE":"3589751","TLE_LINE1":"1 51790U 22017Y   22275.84991976 -.00001647  00000-0 -85418-4 0  9995","ARG_OF_PERICENTER":"52.2159","BSTAR":"-0.00008541800000","ELEMENT_SET_NO":"999","EPHEMERIS_TYPE":"0","EPOCH":"2022-10-02T20:23:53.067264","ECCENTRICITY":"0.00016470","INCLINATION":"53.2177","MEAN_MOTION":"15.08833629","MEAN_MOTION_DOT":"-0.00001647","CLASSIFICATION_TYPE":"U","GP_ID":"214049773","REV_AT_EPOCH":"3468","PERIAPSIS":"538.625","CENTER_NAME":"EARTH","MEAN_ANOMALY":"307.8983"},{"LAUNCH_DATE":"2022-02-25","TIME_SYSTEM":"UTC","SEMIMAJOR_AXIS":"6917.855","MEAN_ELEMENT_THEORY":"SGP4","DECAY_DATE":null,"MEAN_MOTION_DDOT":"0.0000000000000","TLE_LINE2":"2 51791  53.2164 220.4483 0002153  49.4821 310.6358 15.08848265 34547","PERIOD":"95.437","REF_FRAME":"TEME","SITE":"AFWTR","OBJECT_ID":"2022-017Z","APOAPSIS":"541.210","RCS_SIZE":"LARGE","COUNTRY_CODE":"US","OBJECT_NAME":"STARLINK-3602","RA_OF_ASC_NODE":"220.4483","NORAD_CAT_ID":"51791","OBJECT_TYPE":"PAYLOAD","MEAN_ANOMALY":"310.6358","CENTER_NAME":"EARTH","PERIAPSIS":"538.231","REV_AT_EPOCH":"3454","GP_ID":"214018978","MEAN_MOTION_DOT":"-0.00001785","CLASSIFICATION_TYPE":"U","MEAN_MOTION":"15.08848265","INCLINATION":"53.2164","ECCENTRICITY":"0.00021530","EPHEMERIS_TYPE":"0","ELEMENT_SET_NO":"999","EPOCH":"2022-10-02T06:21:18.027936","BSTAR":"-0.00009405800000","ARG_OF_PERICENTER":"49.4821","TLE_LINE1":"1 51791U 22017Z   22275.26479199 -.00001785  00000-0 -94058-4 0  9993","FILE":"3589474"}];
